PROBA-1                 
1 26958U 01049B   26165.28245653  .00003028  00000+0  19706-3 0  9997
2 26958  97.9600 173.7135 0056154 131.4568 229.1501 15.07488192343183
CUTE-1 (CO-55)          
1 27844U 03031E   26165.01650923  .00000269  00000+0  13536-3 0  9995
2 27844  98.6736 173.6152 0009315 187.2201 172.8845 14.24333986191223
CUBESAT XI-IV (CO-57)   
1 27848U 03031J   26165.28450993  .00000215  00000+0  11362-3 0  9999
2 27848  98.6766 173.5948 0008828 205.9293 154.1445 14.23619426190963
APRIZESAT 4             
1 35684U 09041D   26165.15518865  .00000593  00000+0  77384-4 0  9998
2 35684  98.1412 240.4152 0042596 333.0800  26.8203 14.83875858910912
APRIZESAT 3             
1 35686U 09041F   26165.15646432  .00001462  00000+0  13041-3 0  9997
2 35686  98.2055 318.2352 0062749  77.5021 283.3210 14.96232350915923
PROBA-2                 
1 36037U 09059B   26165.21434803  .00000170  00000+0  50208-4 0  9993
2 36037  98.2449 348.6084 0012026 292.2581  67.7340 14.54861280881092
APRIZESAT 5             
1 37792U 11044E   26165.30488095  .00001024  00000+0  13643-3 0  9991
2 37792  98.2455  98.2636 0052577  13.5626 346.6985 14.81070410798366
APRIZESAT 6             
1 37793U 11044F   26165.02097431  .00000704  00000+0  10636-3 0  9994
2 37793  98.2368  75.4559 0044483  95.8552 275.6955 14.76911662796687
PROBA-V                 
1 39159U 13021A   26164.88605581  .00000066  00000+0  46796-4 0  9991
2 39159  98.3582 143.6556 0005007 131.1901 228.9711 14.23596410680641
APRIZESAT 7             
1 39416U 13066A   26165.13511026  .00001008  00000+0  10516-3 0  9992
2 39416  97.7709 118.3989 0034757 219.5806 140.2875 14.91558175680771
APRIZESAT 8             
1 39425U 13066K   26165.11469093  .00000916  00000+0  10511-3 0  9998
2 39425  97.8221 112.6254 0044524 297.0171  62.6504 14.87647693679214
BUGSAT-1 (TITA)         
1 40014U 14033E   26165.26325397  .00007441  00000+0  39237-3 0  9999
2 40014  98.0432 257.6401 0027809 188.5499 171.5262 15.15560280655397
SAUDISAT 4              
1 40016U 14033G   26165.27841150  .00000619  00000+0  88115-4 0  9992
2 40016  97.7578 311.5137 0046222  83.1725 277.4743 14.79541219645641
APRIZESAT 9             
1 40018U 14033J   26165.28900402  .00000607  00000+0  96609-4 0  9995
2 40018  97.9056 298.5585 0065475 208.5626 151.1990 14.74210939643132
APRIZESAT 10            
1 40019U 14033K   26165.26950095  .00000370  00000+0  66189-4 0  9994
2 40019  97.9645 292.2940 0077432 283.3312  75.9269 14.70880134641824
TECHDEMOSAT-1 (TDS-1)   
1 40076U 14037H   26165.24910984  .00007912  00000+0  44906-3 0  9993
2 40076  98.3809 157.1709 0004542 279.5818  80.4897 15.13254899647786
TECHNOSAT               
1 42829U 17042E   26165.25725383  .00003971  00000+0  28337-3 0  9999
2 42829  97.4270 323.0265 0018800 103.4060 256.9264 15.04941924486267
FLYING LAPTOP           
1 42831U 17042G   26165.31922809  .00003827  00000+0  30212-3 0  9996
2 42831  97.4670 320.9621 0019531 131.2063 229.0850 15.01129762486021
HAWK-A                  
1 43765U 18099H   26165.13215432  .00006517  00000+0  26310-3 0  9996
2 43765  97.3918 217.4076 0033205 297.2302  62.5553 15.24611885412632
HAWK-B                  
1 43794U 18099AN  26165.08434591  .00006440  00000+0  27506-3 0  9994
2 43794  97.3967 216.7821 0030669 316.3592  43.5220 15.22796119412567
HAWK-C                  
1 43799U 18099AT  26165.11560373  .00007746  00000+0  27953-3 0  9997
2 43799  97.3896 218.2883 0038857 297.1702  62.5578 15.28065252413442
SALSAT                  
1 46495U 20068K   26165.00581426  .00008178  00000+0  28632-3 0  9997
2 46495  97.8843 167.8766 0008281 321.5879  38.4769 15.29759103314876
HAWK-2C                 
1 47502U 21006CT  26165.08768379  .00006826  00000+0  20564-3 0  9996
2 47502  97.2280 209.4591 0006338 196.7406 163.3629 15.34630308299026
HAWK-2A                 
1 47505U 21006CW  26165.09020655  .00006772  00000+0  20395-3 0  9990
2 47505  97.2324 210.1377 0005748 200.0133 160.0886 15.34645114299029
HAWK-2B                 
1 47508U 21006CZ  26165.08591556  .00007637  00000+0  22904-3 0  9994
2 47508  97.2193 208.4700 0006336 198.1903 161.9115 15.34728701299021
HAWK-3B                 
1 48931U 21059BE  26165.07255718  .00044836  00000+0  38385-3 0  9991
2 48931  97.6653   1.4868 0003421 347.6488  12.4689 15.69320945277369
HAWK-3C                 
1 48948U 21059BX  26165.07223649  .00043820  00000+0  37513-3 0  9991
2 48948  97.6780   7.1673 0003712 347.3269  12.7898 15.69325966277365
HAWK-3A                 
1 48957U 21059CG  26165.07212529  .00044055  00000+0  37706-3 0  9991
2 48957  97.6719   4.3745 0003797 349.6884  10.4298 15.69329354277361
HAWK-5C                 
1 52754U 22057Y   26164.94799748  .00019291  00000+0  33012-3 0  9998
2 52754  97.6586 324.4063 0005198  92.6716 267.5131 15.51289516225841
HAWK-5B                 
1 52756U 22057AA  26164.94784848  .00019104  00000+0  32690-3 0  9999
2 52756  97.6594 322.7552 0005850  85.5710 274.6210 15.51289845225848
